PANDORA
1 67395U 80229J   26128.71320602  .00000000  00000-0  37770-3 0    01
2 67395  97.8062 127.9841 0003537 252.4948 188.9777 14.88002842    02
